FLOCK 4G-25             
1 62646U 25009AP  26068.74572546  .00010373  00000+0  38902-3 0  9990
2 62646  97.4049 151.4141 0000828 316.3151  43.8023 15.27424196 63734
STARLINK-35305          
1 66561U 25268E   26067.99192392 -.00033055  00000+0 -11986-2 0  9996
2 66561  42.9995 350.9526 0001415 290.3728  69.6972 15.27536182 17856
